TDRS 3                  
1 19548U 88091B   22344.91293005 -.00000290  00000+0  00000+0 0  9997
2 19548  13.5865 349.9544 0039768 328.7200  40.6415  1.00265884112491
HST                     
1 20580U 90037B   22344.66433340  .00003124  00000+0  16980-3 0  9994
2 20580  28.4706  80.5731 0002801 134.1458 337.0485 15.11378266592898
TDRS 5                  
1 21639U 91054B   22344.71491984  .00000094  00000+0  00000+0 0  9999
2 21639  14.2240   3.2754 0024806 350.9418 175.1999  1.00281947114837
TDRS 6                  
1 22314U 93003B   22345.10429265 -.00000286  00000+0  00000+0 0  9997
2 22314  14.1419   6.5330 0007953 144.1574 280.7487  1.00276288109506
TDRS 7                  
1 23613U 95035B   22344.77213466 -.00000194  00000+0  00000+0 0  9991
2 23613  13.9103 357.2396 0023952  52.0385  33.0145  1.00273926100370
ISS (ZARYA)             
1 25544U 98067A   22345.69760321  .00010708  00000+0  19611-3 0  9996
2 25544  51.6429 177.2259 0004105 146.5914 304.7303 15.49886897372717
LANDSAT 7               
1 25682U 99020A   22345.06683183  .00000357  00000+0  83905-4 0  9997
2 25682  97.9570  26.2701 0001066  79.1927 280.9411 14.59852879258332
TERRA                   
1 25994U 99068A   22345.15053308  .00000444  00000+0  10428-3 0  9991
2 25994  98.1193  52.9989 0000659 350.7941  30.8803 14.58935276222360
TDRS 8                  
1 26388U 00034A   22344.74422512 -.00000226  00000+0  00000+0 0  9995
2 26388  10.6454  41.3302 0017978 331.4586  64.0239  1.00271835 82308
TIMED                   
1 26998U 01055B   22345.30422464  .00001188  00000+0  13028-3 0  9990
2 26998  74.0723 287.2397 0001034 233.0213 127.0874 14.88993591139468
TDRS 9                  
1 27389U 02011A   22345.20837080 -.00000277  00000+0  00000+0 0  9992
2 27389   9.3957  59.2036 0025817 294.1353  99.3903  1.00272234 77568
AQUA                    
1 27424U 02022A   22345.42949396  .00000805  00000+0  18731-3 0  9992
2 27424  98.2674 285.8076 0001819  63.4621  47.2410 14.57506578 96005
TDRS 10                 
1 27566U 02055A   22344.63482365  .00000099  00000+0  00000+0 0  9996
2 27566   8.5253  48.9623 0005252 313.8423 133.9023  1.00273419 73357
SORCE                   
1 27651U 03004A   22345.39681380  .00002006  00000+0  21489-3 0  9996
2 27651  39.9960 309.1355 0023735 276.5574  83.2513 14.90487767 79495
AURA                    
1 28376U 04026A   22344.84003722  .00000825  00000+0  19329-3 0  9990
2 28376  98.2294 285.7836 0001315  89.8938 270.2411 14.57098487978910
SWIFT                   
1 28485U 04047A   22344.72993382  .00004245  00000+0  24063-3 0  9992
2 28485  20.5550 151.8578 0010422  17.2833 342.7955 15.07710730990176
THEMIS A                
1 30580U 07004A   22344.74655819 -.00000125  00000+0  45274-2 0  9999
2 30580  12.6820 326.4684 8357355 202.4943 290.6244  0.87833610 29981
THEMIS D                
1 30797U 07004D   22344.75290928 -.00000134  00000+0  00000+0 0  9991
2 30797   8.5819 314.6088 8309599 217.7072 304.9301  0.87835924 29780
THEMIS E                
1 30798U 07004E   22344.73330449 -.00000148  00000+0  00000+0 0  9998
2 30798   9.6562 330.0398 8303936 204.2023 289.7428  0.87839406 54620
AIM                     
1 31304U 07015A   22344.86199352  .00012281  00000+0  55555-3 0  9993
2 31304  97.8609 271.0191 0005836 111.3747 248.8111 15.21057288857979
FGRST (GLAST)           
1 33053U 08029A   22345.38680571  .00002361  00000+0  11424-3 0  9993
2 33053  25.5842  40.2176 0012265  72.2028 287.9845 15.12767365800733
WISE                    
1 36119U 09071A   22345.09001232  .00008690  00000+0  24939-3 0  9992
2 36119  97.2202  16.0680 0003530  56.8703 303.2880 15.36087764722614
TDRS 11                 
1 39070U 13004A   22345.57340948  .00000095  00000+0  00000+0 0  9995
2 39070   2.7960 351.5174 0003481  57.8963  62.8711  1.00273510 36110
TDRS 12                 
1 39504U 14004A   22345.33521666 -.00000254  00000+0  00000+0 0  9998
2 39504   3.7261 350.6431 0002155 232.8933 296.3136  1.00269904 32575
GPM-CORE                
1 39574U 14009C   22345.25559424  .00023006  00000+0  33449-3 0  9990
2 39574  65.0003 306.5036 0009077 278.1521  81.8596 15.55723635499120
MMS 1                   
1 40482U 15011A   22340.00000000 -.00000462  00000+0  00000+0 0  9998
2 40482  29.8645  90.6975 8885110  68.6877  27.8487  0.28543168 13785
MMS 2                   
1 40483U 15011B   22340.00000000 -.00000462  00000+0  00000+0 0  9999
2 40483  29.8634  90.7119 8884903  68.6636  27.8507  0.28530615 13761
MMS 3                   
1 40484U 15011C   22340.00000000 -.00000462  00000+0  00000+0 0  9990
2 40484  29.8683  90.6956 8884943  68.6766  27.8760  0.28543389 13765
MMS 4                   
1 40485U 15011D   22340.00000000 -.00000462  00000+0  00000+0 0  9991
2 40485  29.8658  90.7068 8886129  68.6684  27.8509  0.28530602 13765
TDRS 13                 
1 42915U 17047A   22345.13562182 -.00000084  00000+0  00000+0 0  9995
2 42915   4.2379 335.3392 0012809 117.5902  24.2600  1.00271161 19509
JPSS-1                  
1 43013U 17073A   22345.49163669  .00000085  00000+0  61107-4 0  9990
2 43013  98.7349 281.3925 0000538  93.8494 266.2743 14.19534736262346
